OBJECT_NAME,OBJECT_ID,EPOCH,MEAN_MOTION,ECCENTRICITY,INCLINATION,RA_OF_ASC_NODE,ARG_OF_PERICENTER,MEAN_ANOMALY,EPHEMERIS_TYPE,CLASSIFICATION_TYPE,NORAD_CAT_ID,ELEMENT_SET_NO,REV_AT_EPOCH,BSTAR,MEAN_MOTION_DOT,MEAN_MOTION_DDOT
STARLINK-37758,2026-115J,2026-06-14T04:00:01.998720,15.69009630,.0001785,97.2839,182.4747,80.1690,110.2755,0,U,69219,999,420,-.25739E-1,-.2578343E-1,0
STARLINK-37201,2026-115K,2026-06-14T04:00:01.998720,15.68982257,.0002092,97.2837,182.4734,92.1312,93.3313,0,U,69220,999,420,-.25812E-1,-.2582535E-1,0
STARLINK-37728,2026-115L,2026-06-14T04:00:01.998720,15.67335029,.0001717,97.2837,182.4726,85.0674,98.6528,0,U,69221,999,420,-.28247E-1,-.2632507E-1,0
STARLINK-37760,2026-115M,2026-06-14T04:00:01.998720,15.70691585,.0001726,97.2840,182.4774,84.4539,110.8941,0,U,69222,999,420,-.24808E-1,-.2653918E-1,0
STARLINK-37759,2026-115N,2026-06-14T04:00:01.998720,15.56597209,.0001237,97.2836,182.4220,101.4404,318.4296,0,U,69223,999,420,-.1548E-1,-.1004847E-1,0
STARLINK-37725,2026-115P,2026-06-14T04:00:01.998720,15.58361825,.0001275,97.2839,182.4281,73.0333,359.6304,0,U,69224,999,420,-.38084E-1,-.2511104E-1,0
STARLINK-37770,2026-115Q,2026-06-14T04:00:01.998720,15.71650761,.000166,97.2837,182.4842,87.2950,126.8744,0,U,69225,999,420,-.23621E-1,-.2634469E-1,0
STARLINK-37736,2026-115R,2026-06-14T04:00:01.998720,15.69524814,.0001654,97.2841,182.4792,90.5810,110.1528,0,U,69226,999,420,-.25899E-1,-.2640511E-1,0
STARLINK-37737,2026-115S,2026-06-14T04:00:01.998720,15.72210263,.0001725,97.2835,182.4923,96.1331,136.3511,0,U,69227,999,422,-.23173E-1,-.2645239E-1,0
STARLINK-37618,2026-115T,2026-06-14T04:00:01.998720,15.56261753,.0001461,97.2839,182.4249,59.8486,5.7524,0,U,69228,999,420,-.41361E-1,-.2518966E-1,0
STARLINK-37679,2026-115U,2026-06-14T04:00:01.998720,15.57043377,.0001299,97.2836,182.4291,68.0743,8.2163,0,U,69229,999,420,-.40368E-1,-.2529637E-1,0
STARLINK-37746,2026-115V,2026-06-14T04:00:01.998720,15.55064884,.000086,97.2842,182.4137,86.1708,313.3219,0,U,69230,999,420,-.42922E-1,-.2502322E-1,0
STARLINK-37557,2026-115W,2026-06-14T04:00:01.998720,15.49191956,.0001629,97.2839,182.3582,104.5609,167.2190,0,U,69231,999,420,.28661E-4,.1469E-4,0
STARLINK-37745,2026-115X,2026-06-14T04:00:01.998720,15.71821421,.0001092,97.2833,182.5108,86.1192,188.9276,0,U,69232,999,420,-.91786E-2,-.106586E-1,0
STARLINK-37739,2026-115Y,2026-06-14T04:00:01.998720,15.55788891,.0001015,97.2837,182.4060,79.1422,304.0614,0,U,69233,999,420,-.42583E-1,-.2596272E-1,0
STARLINK-37755,2026-115Z,2026-06-14T05:01:46.276032,15.75239544,.0000994,97.2830,182.4898,92.8796,267.2583,0,U,69234,999,421,.89064E-3,.135125E-2,0
TJS-24,2026-116A,2026-06-14T02:29:21.790752,1.00267596,.0000379,0.0127,354.1246,70.1363,325.7648,0,U,69235,999,19,0,0,0
CZ-7A R/B,2026-116B,2026-05-26T21:56:07.164384,2.38711174,.72516577,19.5460,149.3523,178.3837,187.0911,0,U,69236,999,2,.75663565E-4,.49818E-3,-.368698E-6
STARLINK-37665,2026-117A,2026-06-14T03:35:46.874112,15.82026775,.0000792,53.1584,258.8682,43.0613,317.0472,0,U,69238,999,249,.58612E-3,.123074E-2,0
STARLINK-37558,2026-117B,2026-06-14T03:34:24.483936,15.82054702,.0001227,53.1583,258.8620,357.3085,2.7931,0,U,69239,999,249,.91511E-3,.194415E-2,0
STARLINK-37680,2026-117C,2026-06-14T03:32:20.220864,15.82025026,.0001133,53.1586,258.8524,39.1406,320.9699,0,U,69240,999,249,.59755E-3,.125514E-2,0
STARLINK-37742,2026-117D,2026-06-14T03:29:45.926016,15.82019935,.0001439,53.1585,258.8403,34.9146,325.1972,0,U,69241,999,249,.4594E-3,.95979E-3,0
STARLINK-37718,2026-117E,2026-06-13T19:52:59.089152,15.82123535,.00013106,53.1590,260.4172,38.7834,321.3284,0,U,69242,999,244,.11804005E-2,.253529E-2,0
STARLINK-37735,2026-117F,2026-06-14T03:27:49.907232,15.82044560,.0000909,53.1586,258.8303,50.4642,309.6461,0,U,69243,999,249,.60705E-3,.127668E-2,0
STARLINK-37757,2026-117G,2026-06-14T03:24:23.391360,15.82033279,.0001045,53.1586,258.8157,36.2239,323.8855,0,U,69244,999,249,.63715E-3,.134062E-2,0
STARLINK-37767,2026-117H,2026-06-14T03:18:14.878080,15.82030697,.0000948,53.1584,258.7857,24.2231,335.8837,0,U,69245,999,249,.76153E-3,.160854E-2,0
STARLINK-35759,2026-117J,2026-06-14T03:17:15.893664,15.82040998,.0001038,53.1585,258.7816,42.4117,317.6986,0,U,69246,999,249,.76722E-3,.162164E-2,0
STARLINK-37238,2026-117K,2026-06-14T03:10:51.845664,15.82047710,.0001136,53.1587,258.7497,98.5133,261.6019,0,U,69247,999,249,.59835E-3,.125821E-2,0
STARLINK-37412,2026-117L,2026-06-14T03:06:00.616320,15.82123331,.0001169,53.1591,258.7277,139.5782,220.5328,0,U,69248,999,249,.14528E-2,.314426E-2,0
STARLINK-37398,2026-117M,2026-06-14T03:09:07.275744,15.80988612,.0001244,53.1596,258.7421,127.1895,232.9242,0,U,69249,999,249,.14023E-2,.286992E-2,0
