{"updated_at":"2026-06-14T09:52:29.553850Z","count":200,"data":[{"NORAD_CAT_ID":"69238","OBJECT_NAME":"STARLINK-37665","OBJECT_ID":"2026-117A","EPOCH":"2026-06-14T03:35:46.874112","TLE_LINE1":"1 69238U 26117A   26165.14984808  .00123074  00000-0  58612-3 0  9999","TLE_LINE2":"2 69238  53.1584 258.8682 0000792  43.0613 317.0472 15.82026775  2492"},{"NORAD_CAT_ID":"69239","OBJECT_NAME":"STARLINK-37558","OBJECT_ID":"2026-117B","EPOCH":"2026-06-14T03:34:24.483936","TLE_LINE1":"1 69239U 26117B   26165.14889449  .00194415  00000-0  91511-3 0  9997","TLE_LINE2":"2 69239  53.1583 258.8620 0001227 357.3085   2.7931 15.82054702  2491"},{"NORAD_CAT_ID":"69240","OBJECT_NAME":"STARLINK-37680","OBJECT_ID":"2026-117C","EPOCH":"2026-06-14T03:32:20.220864","TLE_LINE1":"1 69240U 26117C   26165.14745626  .00125514  00000-0  59755-3 0  9995","TLE_LINE2":"2 69240  53.1586 258.8524 0001133  39.1406 320.9699 15.82025026  2490"},{"NORAD_CAT_ID":"69241","OBJECT_NAME":"STARLINK-37742","OBJECT_ID":"2026-117D","EPOCH":"2026-06-14T03:29:45.926016","TLE_LINE1":"1 69241U 26117D   26165.14567044  .00095979  00000-0  45940-3 0  9994","TLE_LINE2":"2 69241  53.1585 258.8403 0001439  34.9146 325.1972 15.82019935  2492"},{"NORAD_CAT_ID":"69242","OBJECT_NAME":"STARLINK-37718","OBJECT_ID":"2026-117E","EPOCH":"2026-06-13T19:52:59.089152","TLE_LINE1":"1 69242U 26117E   26164.82846168  .00253529  00000-0  11804-2 0  9994","TLE_LINE2":"2 69242  53.1590 260.4172 0001311  38.7834 321.3284 15.82123535  2447"},{"NORAD_CAT_ID":"69243","OBJECT_NAME":"STARLINK-37735","OBJECT_ID":"2026-117F","EPOCH":"2026-06-14T03:27:49.907232","TLE_LINE1":"1 69243U 26117F   26165.14432763  .00127668  00000-0  60705-3 0  9992","TLE_LINE2":"2 69243  53.1586 258.8303 0000909  50.4642 309.6461 15.82044560  2491"},{"NORAD_CAT_ID":"69244","OBJECT_NAME":"STARLINK-37757","OBJECT_ID":"2026-117G","EPOCH":"2026-06-14T03:24:23.391360","TLE_LINE1":"1 69244U 26117G   26165.14193740  .00134062  00000-0  63715-3 0  9992","TLE_LINE2":"2 69244  53.1586 258.8157 0001045  36.2239 323.8855 15.82033279  2495"},{"NORAD_CAT_ID":"69245","OBJECT_NAME":"STARLINK-37767","OBJECT_ID":"2026-117H","EPOCH":"2026-06-14T03:18:14.878080","TLE_LINE1":"1 69245U 26117H   26165.13767220  .00160854  00000-0  76153-3 0  9990","TLE_LINE2":"2 69245  53.1584 258.7857 0000948  24.2231 335.8837 15.82030697  2494"},{"NORAD_CAT_ID":"69246","OBJECT_NAME":"STARLINK-35759","OBJECT_ID":"2026-117J","EPOCH":"2026-06-14T03:17:15.893664","TLE_LINE1":"1 69246U 26117J   26165.13698951  .00162164  00000-0  76722-3 0  9993","TLE_LINE2":"2 69246  53.1585 258.7816 0001038  42.4117 317.6986 15.82040998  2495"},{"NORAD_CAT_ID":"69247","OBJECT_NAME":"STARLINK-37238","OBJECT_ID":"2026-117K","EPOCH":"2026-06-14T03:10:51.845664","TLE_LINE1":"1 69247U 26117K   26165.13254451  .00125821  00000-0  59835-3 0  9992","TLE_LINE2":"2 69247  53.1587 258.7497 0001136  98.5133 261.6019 15.82047710  2496"},{"NORAD_CAT_ID":"69248","OBJECT_NAME":"STARLINK-37412","OBJECT_ID":"2026-117L","EPOCH":"2026-06-14T03:06:00.616320","TLE_LINE1":"1 69248U 26117L   26165.12917380  .00314426  00000-0  14528-2 0  9999","TLE_LINE2":"2 69248  53.1591 258.7277 0001169 139.5782 220.5328 15.82123331  2491"},{"NORAD_CAT_ID":"69249","OBJECT_NAME":"STARLINK-37398","OBJECT_ID":"2026-117M","EPOCH":"2026-06-14T03:09:07.275744","TLE_LINE1":"1 69249U 26117M   26165.13133421  .00286992  00000-0  14023-2 0  9993","TLE_LINE2":"2 69249  53.1596 258.7421 0001244 127.1895 232.9242 15.80988612  2491"},{"NORAD_CAT_ID":"69233","OBJECT_NAME":"STARLINK-37739","OBJECT_ID":"2026-115Y","EPOCH":"2026-06-14T04:00:01.998720","TLE_LINE1":"1 69233U 26115Y   26165.16668980 -.02596272  00000-0 -42583-1 0  9990","TLE_LINE2":"2 69233  97.2837 182.4060 0001015  79.1422 304.0614 15.55788891  4205"},{"NORAD_CAT_ID":"69234","OBJECT_NAME":"STARLINK-37755","OBJECT_ID":"2026-115Z","EPOCH":"2026-06-14T05:01:46.276032","TLE_LINE1":"1 69234U 26115Z   26165.20956338  .00135125  00000-0  89064-3 0  9992","TLE_LINE2":"2 69234  97.2830 182.4898 0000994  92.8796 267.2583 15.75239544  4213"},{"NORAD_CAT_ID":"69235","OBJECT_NAME":"TJS-24","OBJECT_ID":"2026-116A","EPOCH":"2026-06-14T02:29:21.790752","TLE_LINE1":"1 69235U 26116A   26165.10372443  .00000000  00000-0  00000+0 0  9994","TLE_LINE2":"2 69235   0.0127 354.1246 0000379  70.1363 325.7648  1.00267596   192"},{"NORAD_CAT_ID":"69236","OBJECT_NAME":"CZ-7A R/B","OBJECT_ID":"2026-116B","EPOCH":"2026-05-26T21:56:07.164384","TLE_LINE1":"1 69236U 26116B   26146.91397181  .00049818 -36870-6  75664-4 0  9993","TLE_LINE2":"2 69236  19.5460 149.3523 7251658 178.3837 187.0911  2.38711174    24"},{"NORAD_CAT_ID":"69219","OBJECT_NAME":"STARLINK-37758","OBJECT_ID":"2026-115J","EPOCH":"2026-06-14T04:00:01.998720","TLE_LINE1":"1 69219U 26115J   26165.16668980 -.02578343  00000-0 -25739-1 0  9997","TLE_LINE2":"2 69219  97.2839 182.4747 0001785  80.1690 110.2755 15.69009630  4201"},{"NORAD_CAT_ID":"69220","OBJECT_NAME":"STARLINK-37201","OBJECT_ID":"2026-115K","EPOCH":"2026-06-14T04:00:01.998720","TLE_LINE1":"1 69220U 26115K   26165.16668980 -.02582535  00000-0 -25812-1 0  9999","TLE_LINE2":"2 69220  97.2837 182.4734 0002092  92.1312  93.3313 15.68982257  4208"},{"NORAD_CAT_ID":"69221","OBJECT_NAME":"STARLINK-37728","OBJECT_ID":"2026-115L","EPOCH":"2026-06-14T04:00:01.998720","TLE_LINE1":"1 69221U 26115L   26165.16668980 -.02632507  00000-0 -28247-1 0  9990","TLE_LINE2":"2 69221  97.2837 182.4726 0001717  85.0674  98.6528 15.67335029  4209"},{"NORAD_CAT_ID":"69222","OBJECT_NAME":"STARLINK-37760","OBJECT_ID":"2026-115M","EPOCH":"2026-06-14T04:00:01.998720","TLE_LINE1":"1 69222U 26115M   26165.16668980 -.02653918  00000-0 -24808-1 0  9999","TLE_LINE2":"2 69222  97.2840 182.4774 0001726  84.4539 110.8941 15.70691585  4202"},{"NORAD_CAT_ID":"69223","OBJECT_NAME":"STARLINK-37759","OBJECT_ID":"2026-115N","EPOCH":"2026-06-14T04:00:01.998720","TLE_LINE1":"1 69223U 26115N   26165.16668980 -.01004847  00000-0 -15480-1 0  9996","TLE_LINE2":"2 69223  97.2836 182.4220 0001237 101.4404 318.4296 15.56597209  4203"},{"NORAD_CAT_ID":"69224","OBJECT_NAME":"STARLINK-37725","OBJECT_ID":"2026-115P","EPOCH":"2026-06-14T04:00:01.998720","TLE_LINE1":"1 69224U 26115P   26165.16668980 -.02511104  00000-0 -38084-1 0  9992","TLE_LINE2":"2 69224  97.2839 182.4281 0001275  73.0333 359.6304 15.58361825  4203"},{"NORAD_CAT_ID":"69225","OBJECT_NAME":"STARLINK-37770","OBJECT_ID":"2026-115Q","EPOCH":"2026-06-14T04:00:01.998720","TLE_LINE1":"1 69225U 26115Q   26165.16668980 -.02634469  00000-0 -23621-1 0  9994","TLE_LINE2":"2 69225  97.2837 182.4842 0001660  87.2950 126.8744 15.71650761  4202"},{"NORAD_CAT_ID":"69226","OBJECT_NAME":"STARLINK-37736","OBJECT_ID":"2026-115R","EPOCH":"2026-06-14T04:00:01.998720","TLE_LINE1":"1 69226U 26115R   26165.16668980 -.02640511  00000-0 -25899-1 0  9999","TLE_LINE2":"2 69226  97.2841 182.4792 0001654  90.5810 110.1528 15.69524814  4209"},{"NORAD_CAT_ID":"69227","OBJECT_NAME":"STARLINK-37737","OBJECT_ID":"2026-115S","EPOCH":"2026-06-14T04:00:01.998720","TLE_LINE1":"1 69227U 26115S   26165.16668980 -.02645239  00000-0 -23173-1 0  9995","TLE_LINE2":"2 69227  97.2835 182.4923 0001725  96.1331 136.3511 15.72210263  4226"},{"NORAD_CAT_ID":"69228","OBJECT_NAME":"STARLINK-37618","OBJECT_ID":"2026-115T","EPOCH":"2026-06-14T04:00:01.998720","TLE_LINE1":"1 69228U 26115T   26165.16668980 -.02518966  00000-0 -41361-1 0  9991","TLE_LINE2":"2 69228  97.2839 182.4249 0001461  59.8486   5.7524 15.56261753  4209"},{"NORAD_CAT_ID":"69229","OBJECT_NAME":"STARLINK-37679","OBJECT_ID":"2026-115U","EPOCH":"2026-06-14T04:00:01.998720","TLE_LINE1":"1 69229U 26115U   26165.16668980 -.02529637  00000-0 -40368-1 0  9995","TLE_LINE2":"2 69229  97.2836 182.4291 0001299  68.0743   8.2163 15.57043377  4209"},{"NORAD_CAT_ID":"69230","OBJECT_NAME":"STARLINK-37746","OBJECT_ID":"2026-115V","EPOCH":"2026-06-14T04:00:01.998720","TLE_LINE1":"1 69230U 26115V   26165.16668980 -.02502322  00000-0 -42922-1 0  9997","TLE_LINE2":"2 69230  97.2842 182.4137 0000860  86.1708 313.3219 15.55064884  4208"},{"NORAD_CAT_ID":"69231","OBJECT_NAME":"STARLINK-37557","OBJECT_ID":"2026-115W","EPOCH":"2026-06-14T04:00:01.998720","TLE_LINE1":"1 69231U 26115W   26165.16668980  .00001469  00000-0  28661-4 0  9997","TLE_LINE2":"2 69231  97.2839 182.3582 0001629 104.5609 167.2190 15.49191956  4205"},{"NORAD_CAT_ID":"69232","OBJECT_NAME":"STARLINK-37745","OBJECT_ID":"2026-115X","EPOCH":"2026-06-14T04:00:01.998720","TLE_LINE1":"1 69232U 26115X   26165.16668980 -.01065860  00000-0 -91786-2 0  9992","TLE_LINE2":"2 69232  97.2833 182.5108 0001092  86.1192 188.9276 15.71821421  4209"}]}